IRIDIUM 155             
1 43573U 18061E   23121.58183772  .00000299  00000+0  99568-4 0  9998
2 43573  86.4011 174.2182 0002541  99.3190 260.8293 14.34218533249584
IRIDIUM 154             
1 43574U 18061F   23121.63258277  .00000281  00000+0  93391-4 0  9997
2 43574  86.4016 174.2750 0002084  94.1372 266.0062 14.34218099249644
IRIDIUM 163             
1 43575U 18061G   23121.54378406  .00000285  00000+0  94611-4 0  9995
2 43575  86.4013 174.2631 0002288  90.9106 269.2352 14.34215821249608
IRIDIUM 156             
1 43576U 18061H   23121.65794716  .00000293  00000+0  97590-4 0  9992
2 43576  86.4011 174.2206 0002466  94.5946 265.5531 14.34217934249600
IRIDIUM 164             
1 43577U 18061J   23121.56915075  .00000314  00000+0  10496-3 0  9999
2 43577  86.4014 174.2808 0002249  89.6226 270.5227 14.34218112249648
IRIDIUM 159             
1 43578U 18061K   23121.53743282  .00000297  00000+0  98875-4 0  9994
2 43578  86.4013 174.2551 0002308  96.8007 263.3452 14.34219548249606
IRIDIUM 180             
1 43922U 19002A   23121.95554554  .00000114  00000+0  33568-4 0  9997
2 43922  86.3923 110.9975 0002193  85.7389 274.4057 14.34215626225316
IRIDIUM 176             
1 43923U 19002B   23121.48590432  .00000525  00000+0  79249-4 0  9993
2 43923  86.6057 111.2344 0002788  91.8391 268.3145 14.72269858231127
IRIDIUM 168             
1 43924U 19002C   23121.94920269  .00000191  00000+0  61095-4 0  9999
2 43924  86.3925 111.0452 0002195  88.1885 271.9562 14.34219028225258
IRIDIUM 173             
1 43925U 19002D   23121.51790585  .00000058  00000+0  13705-4 0  9996
2 43925  86.3922 111.1612 0002183  87.1850 272.9595 14.34216814225171
IRIDIUM 169             
1 43926U 19002E   23121.59004400  .00000191  00000+0  55822-4 0  9993
2 43926  86.4215 142.7392 0005396 126.3898 233.7799 14.38608522225952
IRIDIUM 172             
1 43927U 19002F   23121.93017295  .00000175  00000+0  55428-4 0  9992
2 43927  86.3923 110.9933 0002213  88.7154 271.4295 14.34219052225241
IRIDIUM 175             
1 43928U 19002G   23121.47948882  .00000546  00000+0  82630-4 0  9994
2 43928  86.1472 107.6917 0002536  90.5374 269.6133 14.72248343231117
IRIDIUM 171             
1 43929U 19002H   23121.35299870 -.00000185  00000+0 -73034-4 0  9997
2 43929  86.3934 111.4143 0002153  86.3197 273.8245 14.34215838225157
IRIDIUM 170             
1 43930U 19002J   23121.49203804  .00000519  00000+0  78400-4 0  9997
2 43930  86.6057 111.2369 0002644  92.1628 267.9892 14.72271471231139
IRIDIUM 167             
1 43931U 19002K   23121.48617971  .00000191  00000+0  61082-4 0  9995
2 43931  86.3923 111.1912 0002122  84.8593 275.2845 14.34220674225176
